NORAD_CAT_ID,OBJECT_NAME,OBJECT_TYPE,EPOCH,MEAN_MOTION,ECCENTRICITY,INCLINATION,RA_OF_ASC_NODE,ARG_OF_PERICENTER,MEAN_ANOMALY,BSTAR,MEAN_MOTION_DOT,MEAN_MOTION_DDOT,TLE_LINE0,TLE_LINE1,TLE_LINE2,SEMIMAJOR_AXIS,PERIOD,APOGEE,PERIGEE,DECAYED
53621.0,STARLINK-4608,PAYLOAD,2024-06-11 20:06:47,15.0883956,0.0001349,53.2147,208.5293,82.9714,277.1431,7.355e-05,8.83e-06,0.0,0 STARLINK-4608,1 53621U 22104AK  24163.83805366  .00000883  00000-0  73550-4 0  9994,2 53621  53.2147 208.5293 0001349  82.9714 277.1431 15.08839560 99073,6917.882,95.438,540.68,538.814,0.0
53621.0,STARLINK-4608,PAYLOAD,2024-06-12 10:25:16,15.0883391,0.0001441,53.2155,205.8531,82.914,277.2016,-5.5036e-05,-1.164e-05,0.0,0 STARLINK-4608,1 53621U 22104AK  24164.43421943 -.00001164  00000-0 -55036-4 0  9990,2 53621  53.2155 205.8531 0001441  82.9140 277.2016 15.08833910 99166,6917.899,95.438,540.761,538.767,0.0
53621.0,STARLINK-4608,PAYLOAD,2024-06-13 08:40:40,15.08844668,0.0001402,53.2163,201.6892,86.3751,273.7402,0.00013439,1.852e-05,0.0,0 STARLINK-4608,1 53621U 22104AK  24165.36157426  .00001852  00000-0  13439-3 0  9997,2 53621  53.2163 201.6892 0001402  86.3751 273.7402 15.08844668 99300,6917.866,95.437,540.701,538.761,0.0
53621.0,STARLINK-4608,PAYLOAD,2024-06-14 08:31:27,15.08837281,0.0001376,53.2163,197.2283,90.6191,269.4959,7.1064e-05,8.43e-06,0.0,0 STARLINK-4608,1 53621U 22104AK  24166.35518142  .00000843  00000-0  71064-4 0  9991,2 53621  53.2163 197.2283 0001376  90.6191 269.4959 15.08837281100024,6917.889,95.438,540.706,538.802,0.0
53621.0,STARLINK-4608,PAYLOAD,2024-06-14 19:39:09,15.08841757,0.0001396,53.2165,195.1468,90.9507,269.1645,7.8704e-05,9.65e-06,0.0,0 STARLINK-4608,1 53621U 22104AK  24166.81885843  .00000965  00000-0  78704-4 0  9990,2 53621  53.2165 195.1468 0001396  90.9507 269.1645 15.08841757100093,6917.875,95.437,540.706,538.774,0.0
53621.0,STARLINK-4608,PAYLOAD,2024-06-15 11:33:00,15.08847191,0.0001384,53.2164,192.1722,93.9322,266.1828,7.3943e-05,8.89e-06,0.0,0 STARLINK-4608,1 53621U 22104AK  24167.48125303  .00000889  00000-0  73943-4 0  9997,2 53621  53.2164 192.1722 0001384  93.9322 266.1828 15.08847191100196,6917.858,95.437,540.681,538.766,0.0
53621.0,STARLINK-4608,PAYLOAD,2024-06-15 22:40:42,15.0883996,0.0001359,53.2165,190.09,94.5033,265.6115,9.449e-05,1.216e-05,0.0,0 STARLINK-4608,1 53621U 22104AK  24167.94493605  .00001216  00000-0  94490-4 0  9996,2 53621  53.2165 190.0900 0001359  94.5033 265.6115 15.08839960100266,6917.881,95.438,540.686,538.805,0.0
53621.0,STARLINK-4608,PAYLOAD,2024-06-16 11:23:47,15.08842183,0.0001337,53.2164,187.712,90.0868,270.0277,8.0946e-05,1.001e-05,0.0,0 STARLINK-4608,1 53621U 22104AK  24168.47485541  .00001001  00000-0  80946-4 0  9998,2 53621  53.2164 187.7120 0001337  90.0868 270.0277 15.08842183100344,6917.874,95.437,540.664,538.814,0.0
53621.0,STARLINK-4608,PAYLOAD,2024-06-16 17:45:20,15.08838733,0.0001317,53.2161,186.5223,89.275,270.8393,3.9778e-05,3.45e-06,0.0,0 STARLINK-4608,1 53621U 22104AK  24168.73981856  .00000345  00000-0  39778-4 0  9994,2 53621  53.2161 186.5223 0001317  89.2750 270.8393 15.08838733100387,6917.884,95.438,540.66,538.838,0.0
53621.0,STARLINK-4608,PAYLOAD,2024-06-17 17:36:07,15.08837728,0.0001345,53.2161,182.062,87.9922,272.1224,1.3699e-05,-7e-07,0.0,0 STARLINK-4608,1 53621U 22104AK  24169.73341966 -.00000070  00000-0  13699-4 0  9997,2 53621  53.2161 182.0620 0001345  87.9922 272.1224 15.08837728100534,6917.887,95.438,540.683,538.822,0.0
53621.0,STARLINK-4608,PAYLOAD,2024-06-18 09:29:58,15.08837595,0.0001379,53.2162,179.0889,88.1628,271.9522,3.8119e-05,3.19e-06,0.0,0 STARLINK-4608,1 53621U 22104AK  24170.39582026  .00000319  00000-0  38119-4 0  9994,2 53621  53.2162 179.0889 0001379  88.1628 271.9522 15.08837595100069,6917.888,95.438,540.707,538.799,0.0
53621.0,STARLINK-4608,PAYLOAD,2024-06-18 17:26:54,15.08835977,0.0001366,53.2161,177.6021,87.5224,272.5925,3.1463e-05,2.13e-06,0.0,0 STARLINK-4608,1 53621U 22104AK  24170.72702194  .00000213  00000-0  31463-4 0  9999,2 53621  53.2161 177.6021 0001366  87.5224 272.5925 15.08835977100685,6917.893,95.438,540.703,538.813,0.0
53621.0,STARLINK-4608,PAYLOAD,2024-06-19 04:34:37,15.08831826,0.0001368,53.2162,175.5206,89.9965,270.1184,1.3325e-05,-7.6e-07,0.0,0 STARLINK-4608,1 53621U 22104AK  24171.19070674 -.00000076  00000-0  13325-4 0  9997,2 53621  53.2162 175.5206 0001368  89.9965 270.1184 15.08831826100183,6917.905,95.438,540.717,538.824,0.0
53621.0,STARLINK-4608,PAYLOAD,2024-06-19 09:20:46,15.08833701,0.0001382,53.2162,174.6286,90.0685,270.0465,2.1364e-05,5.2e-07,0.0,0 STARLINK-4608,1 53621U 22104AK  24171.38942609  .00000052  00000-0  21364-4 0  9999,2 53621  53.2162 174.6286 0001382  90.0685 270.0465 15.08833701100780,6917.9,95.438,540.721,538.809,0.0
53621.0,STARLINK-4608,PAYLOAD,2024-06-19 17:17:42,15.08835878,0.0001371,53.2162,173.1416,88.5652,271.5498,3.5047e-05,2.7e-06,0.0,0 STARLINK-4608,1 53621U 22104AK  24171.72062522  .00000270  00000-0  35047-4 0  9999,2 53621  53.2162 173.1416 0001371  88.5652 271.5498 15.08835878100838,6917.893,95.438,540.706,538.81,0.0
53621.0,STARLINK-4608,PAYLOAD,2024-06-20 04:25:23,15.08838741,0.0001382,53.2164,171.06,88.6289,271.4862,5.2044e-05,5.4e-06,0.0,0 STARLINK-4608,1 53621U 22104AK  24172.18430369  .00000540  00000-0  52044-4 0  9994,2 53621  53.2164 171.0600 0001382  88.6289 271.4862 15.08838741100332,6917.884,95.438,540.705,538.793,0.0
53621.0,STARLINK-4608,PAYLOAD,2024-06-20 09:11:33,15.08840445,0.0001397,53.2165,170.1681,88.2675,271.8477,6.1712e-05,6.94e-06,0.0,0 STARLINK-4608,1 53621U 22104AK  24172.38302249  .00000694  00000-0  61712-4 0  9993,2 53621  53.2165 170.1681 0001397  88.2675 271.8477 15.08840445100939,6917.879,95.438,540.71,538.778,0.0
53621.0,STARLINK-4608,PAYLOAD,2024-06-20 17:08:29,15.08837782,0.0001389,53.2163,168.6806,87.1485,272.9667,3.8849e-05,3.3e-06,0.0,0 STARLINK-4608,1 53621U 22104AK  24172.71422509  .00000330  00000-0  38849-4 0  9994,2 53621  53.2163 168.6806 0001389  87.1485 272.9667 15.08837782100984,6917.887,95.438,540.713,538.791,0.0
53621.0,STARLINK-4608,PAYLOAD,2024-06-21 09:02:20,15.08838446,0.0001417,53.2166,165.7059,88.7256,271.3898,6.6052e-05,7.63e-06,0.0,0 STARLINK-4608,1 53621U 22104AK  24173.37662501  .00000763  00000-0  66052-4 0  9992,2 53621  53.2166 165.7059 0001417  88.7256 271.3898 15.08838446100516,6917.885,95.438,540.73,538.77,0.0
53621.0,STARLINK-4608,PAYLOAD,2024-06-22 05:42:21,15.08839612,0.0001454,53.2169,161.8396,90.3571,269.7588,1.9632e-05,2.4e-07,0.0,0 STARLINK-4608,1 53621U 22104AK  24174.23774617  .00000024  00000-0  19632-4 0  9992,2 53621  53.2169 161.8396 0001454  90.3571 269.7588 15.08839612101211,6917.882,95.438,540.752,538.741,0.0
53621.0,STARLINK-4608,PAYLOAD,2024-06-22 23:11:35,15.0884162,0.0001423,53.2168,158.5681,92.6864,267.4291,4.9242e-05,4.96e-06,0.0,0 STARLINK-4608,1 53621U 22104AK  24174.96638336  .00000496  00000-0  49242-4 0  9992,2 53621  53.2168 158.5681 0001423  92.6864 267.4291 15.08841620101326,6917.875,95.437,540.725,538.756,0.0
53621.0,STARLINK-4608,PAYLOAD,2024-06-23 03:57:44,15.08843749,0.0001423,53.2166,157.677,89.8676,270.2479,6.8465e-05,8.02e-06,0.0,0 STARLINK-4608,1 53621U 22104AK  24175.16510122  .00000802  00000-0  68465-4 0  9996,2 53621  53.2166 157.6770 0001423  89.8676 270.2479 15.08843749100785,6917.869,95.437,540.718,538.75,0.0
53621.0,STARLINK-4608,PAYLOAD,2024-06-23 08:43:54,15.08844742,0.000149,53.2171,156.7856,99.6858,260.4303,7.1885e-05,8.56e-06,0.0,0 STARLINK-4608,1 53621U 22104AK  24175.36381970  .00000856  00000-0  71885-4 0  9994,2 53621  53.2171 156.7856 0001490  99.6858 260.4303 15.08844742101389,6917.866,95.437,540.762,538.7,0.0
53621.0,STARLINK-4608,PAYLOAD,2024-06-24 08:34:40,15.0884438,0.0001683,53.2173,152.3215,89.3408,270.7777,0.0001137,1.522e-05,0.0,0 STARLINK-4608,1 53621U 22104AK  24176.35741884  .00001522  00000-0  11370-3 0  9991,2 53621  53.2173 152.3215 0001683  89.3408 270.7777 15.08844380100963,6917.867,95.437,540.896,538.568,0.0
53621.0,STARLINK-4608,PAYLOAD,2024-06-25 05:14:42,15.08838473,0.0001235,53.2162,148.4539,99.1821,260.9311,-6.1078e-05,-1.26e-05,0.0,0 STARLINK-4608,1 53621U 22104AK  24177.21854693 -.00001260  00000-0 -61078-4 0  9992,2 53621  53.2162 148.4539 0001235  99.1821 260.9311 15.08838473101093,6917.885,95.438,540.604,538.896,0.0
53621.0,STARLINK-4608,PAYLOAD,2024-06-26 05:05:28,15.08857442,0.0001201,53.2171,143.9916,91.6148,268.4981,-3.9611e-05,-9.19e-06,0.0,0 STARLINK-4608,1 53621U 22104AK  24178.21213542 -.00000919  00000-0 -39611-4 0  9993,2 53621  53.2171 143.9916 0001201  91.6148 268.4981 15.08857442101244,6917.827,95.436,540.523,538.861,0.0
53621.0,STARLINK-4608,PAYLOAD,2024-06-27 04:56:16,15.08833466,0.0001184,53.2168,139.5346,87.8896,272.2232,2.1385e-05,5.2e-07,0.0,0 STARLINK-4608,1 53621U 22104AK  24179.20575151  .00000052  00000-0  21385-4 0  9995,2 53621  53.2168 139.5346 0001184  87.8896 272.2232 15.08833466101393,6917.9,95.438,540.584,538.946,0.0
53621.0,STARLINK-4608,PAYLOAD,2024-06-27 14:28:36,15.0883251,0.0001048,53.2162,137.7544,93.6765,266.4347,-1.6338e-05,-5.48e-06,0.0,0 STARLINK-4608,1 53621U 22104AK  24179.60319493 -.00000548  00000-0 -16338-4 0  9998,2 53621  53.2162 137.7544 0001048  93.6765 266.4347 15.08832510102028,6917.903,95.438,540.493,539.043,0.0
53621.0,STARLINK-4608,PAYLOAD,2024-06-28 14:19:22,15.08854158,0.0001302,53.2172,133.2971,83.6893,276.4248,3.6453e-05,2.92e-06,0.0,0 STARLINK-4608,1 53621U 22104AK  24180.59678256  .00000292  00000-0  36453-4 0  9997,2 53621  53.2172 133.2971 0001302  83.6893 276.4248 15.08854158102177,6917.837,95.437,540.603,538.801,0.0
53621.0,STARLINK-4608,PAYLOAD,2024-06-29 14:10:09,15.08845081,0.0001275,53.2157,128.8359,73.7765,286.3368,0.00020706,3.009e-05,0.0,0 STARLINK-4608,1 53621U 22104AK  24181.59038817  .00003009  00000-0  20706-3 0  9993,2 53621  53.2157 128.8359 0001275  73.7765 286.3368 15.08845081102322,6917.865,95.437,540.612,538.848,0.0
